      2.10          N: GNSS NAV DATA                        RINEX VERSION / TYPE
fic2rin                                 02/21/2019 00:18:26 PGM / RUN BY / DATE
                                                            END OF HEADER
30 19  2 20 20  0  0.0-5.604419857264e-05-6.480149750132e-12 0.000000000000e+00
    1.900000000000e+01-9.375000000000e+00 5.701666068706e-09-2.837207383544e+00
   -4.228204488754e-07 3.672832157463e-03 3.471970558167e-06 5.153612964630e+03
    3.312000000000e+05-5.587935447693e-08 1.955146725195e+00-4.656612873077e-08
    9.412767046387e-01 3.061562500000e+02-3.020763707253e+00-8.717148818524e-09
   -4.143029716675e-11 1.000000000000e+00 2.041000000000e+03 0.000000000000e+00
    2.400000000000e+00 0.000000000000e+00 3.725290298462e-09 1.900000000000e+01
    3.240000000000e+05 4.000000000000e+00
16 19  2 20 20  0  0.0-2.052076160908e-05-2.501110429876e-12 0.000000000000e+00
    5.200000000000e+01-3.590625000000e+01 3.988737575502e-09 8.130016003685e-01
   -1.506879925728e-06 1.061859610491e-02 1.189112663269e-05 5.153778543472e+03
    3.312000000000e+05-1.005828380585e-07 3.042540252277e+00 1.322478055954e-07
    9.845529140322e-01 1.630000000000e+02 5.425770621353e-01-7.787824394146e-09
   -7.086009446450e-10 1.000000000000e+00 2.041000000000e+03 0.000000000000e+00
    2.400000000000e+00 0.000000000000e+00-1.071020960808e-08 5.200000000000e+01
    3.240000000000e+05 4.000000000000e+00
 8 19  2 20 20  0  0.0-1.334897242486e-04-1.364242052659e-12 0.000000000000e+00
    8.800000000000e+01 1.064375000000e+02 4.125528987699e-09 2.615212422095e-01
    5.399808287621e-06 4.296599654481e-03 1.009926199913e-05 5.153703062057e+03
    3.312000000000e+05 4.097819328308e-08-2.292841634880e+00-4.097819328308e-08
    9.702055468525e-01 1.902812500000e+02-3.420857207862e-01-8.002119034663e-09
    2.232235838726e-10 1.000000000000e+00 2.041000000000e+03 0.000000000000e+00
    2.400000000000e+00 0.000000000000e+00 5.122274160385e-09 8.800000000000e+01
    3.240000000000e+05 4.000000000000e+00
25 19  2 20 20  0  0.0-7.232264615595e-04-5.343281372916e-12 0.000000000000e+00
    2.600000000000e+01-4.815625000000e+01 4.212675474843e-09 2.405719128452e+00
   -2.626329660416e-06 8.235407527536e-03 1.250207424164e-05 5.153754154205e+03
    3.312000000000e+05-3.911554813385e-08 2.960557531676e+00-1.955777406693e-07
    9.716123108213e-01 1.417500000000e+02 8.594308956150e-01-7.757108829005e-09
   -7.075294714424e-10 1.000000000000e+00 2.041000000000e+03 0.000000000000e+00
    2.400000000000e+00 0.000000000000e+00 5.587935447693e-09 2.600000000000e+01
    3.240000000000e+05 4.000000000000e+00
24 19  2 20 20  0  0.0-6.242375820875e-05-4.547473508865e-13 0.000000000000e+00
    3.800000000000e+01 6.687500000000e+00 5.785240978508e-09-1.933124156849e+00
    2.123415470123e-07 8.194427355193e-03 3.270804882050e-06 5.153715345383e+03
    3.312000000000e+05 8.195638656616e-08 1.861164354680e+00-9.872019290924e-08
    9.388947243682e-01 3.035937500000e+02 5.955525515200e-01-8.772865425058e-09
    2.125088518467e-10 1.000000000000e+00 2.041000000000e+03 0.000000000000e+00
    3.400000000000e+00 0.000000000000e+00 2.793967723846e-09 3.800000000000e+01
    3.240000000000e+05 4.000000000000e+00
21 19  2 20 20  0  0.0-2.464046701789e-04 7.275957614183e-12 0.000000000000e+00
    2.100000000000e+01 2.621875000000e+01 5.121641908372e-09 2.296322414383e+00
    1.046806573868e-06 2.477898972575e-02-7.823109626770e-08 5.153789216995e+03
    3.312000000000e+05 2.626329660416e-07-1.287853837013e+00-8.009374141693e-08
    9.469427267998e-01 3.668125000000e+02-1.474203993394e+00-8.464638300447e-09
   -6.678849629467e-11 1.000000000000e+00 2.041000000000e+03 0.000000000000e+00
    2.400000000000e+00 0.000000000000e+00-1.024454832077e-08 2.100000000000e+01
    3.240000000000e+05 4.000000000000e+00
27 19  2 20 20  0  0.0-7.152371108532e-05-7.503331289627e-12 0.000000000000e+00
    7.100000000000e+01 1.050312500000e+02 4.054097440860e-09-4.456029012637e-02
    5.461275577545e-06 6.705589126796e-03 1.026317477226e-05 5.153637172699e+03
    3.312000000000e+05 5.401670932770e-08-2.282241522120e+00 5.215406417847e-08
    9.784604556397e-01 1.880312500000e+02 4.295268842502e-01-7.977475151004e-09
    2.375098932404e-10 1.000000000000e+00 2.041000000000e+03 0.000000000000e+00
    2.400000000000e+00 0.000000000000e+00 1.396983861923e-09 7.100000000000e+01
    3.240000000000e+05 4.000000000000e+00
14 19  2 20 20  0  0.0-9.097298607230e-05 1.250555214938e-12 0.000000000000e+00
    6.500000000000e+01 4.237500000000e+01 4.645193490954e-09-2.946169900602e-01
    2.266839146614e-06 1.015731471125e-02 1.099333167076e-05 5.153673627853e+03
    3.312000000000e+05-6.891787052155e-08 9.406375879140e-01 7.450580596924e-08
    9.606332905753e-01 1.720937500000e+02-1.948051847539e+00-8.221771041194e-09
    6.893144269984e-10 1.000000000000e+00 2.041000000000e+03 0.000000000000e+00
    2.400000000000e+00 0.000000000000e+00-9.778887033463e-09 6.500000000000e+01
    3.240000000000e+05 4.000000000000e+00
13 19  2 20 20  0  0.0-7.427437230945e-05 1.250555214938e-12 0.000000000000e+00
    6.400000000000e+01 5.921875000000e+01 4.437684847386e-09-1.152556206627e+00
    3.151595592499e-06 3.719717962667e-03 1.105852425098e-05 5.153666240692e+03
    3.312000000000e+05 9.313225746155e-09 9.843870732500e-01 1.061707735062e-07
    9.680244047534e-01 1.715000000000e+02 1.364525353067e+00-8.039977754488e-09
    7.678891285216e-10 1.000000000000e+00 2.041000000000e+03 0.000000000000e+00
    2.400000000000e+00 0.000000000000e+00-1.117587089539e-08 6.400000000000e+01
    3.240000000000e+05 4.000000000000e+00
23 19  2 20 20  0  0.0-1.965695992112e-04 1.250555214938e-12 0.000000000000e+00
    6.200000000000e+01 5.059375000000e+01 4.801271420798e-09-1.466617370455e+00
    2.603977918625e-06 1.280336244963e-02 1.094862818718e-05 5.153639110565e+03
    3.312000000000e+05 2.793967723846e-07 8.444109796438e-01-1.676380634308e-08
    9.434562389907e-01 1.533437500000e+02-2.296517672985e+00-8.082836682592e-09
    6.814569568461e-10 1.000000000000e+00 2.041000000000e+03 0.000000000000e+00
    2.400000000000e+00 0.000000000000e+00-2.002343535423e-08 6.200000000000e+01
    3.240000000000e+05 4.000000000000e+00
15 19  2 20 20  0  0.0-3.269510343671e-04 1.705302565824e-12 0.000000000000e+00
    7.800000000000e+01 4.015625000000e+01 5.145214318829e-09-9.405887878927e-01
    2.279877662659e-06 1.122794591356e-02 1.270510256290e-05 5.153645006180e+03
    3.312000000000e+05 2.272427082062e-07 7.710262308973e-01 1.937150955200e-07
    9.282233645718e-01 1.134062500000e+02 7.634953524517e-01-8.388563703063e-09
    6.564559154524e-10 1.000000000000e+00 2.041000000000e+03 0.000000000000e+00
    2.400000000000e+00 0.000000000000e+00-1.071020960808e-08 7.800000000000e+01
    3.240000000000e+05 4.000000000000e+00
11 19  2 20 20  0  0.0-6.570783443749e-04 6.139089236967e-12 0.000000000000e+00
    7.700000000000e+01 1.002812500000e+02 5.829528537548e-09-2.925564793082e+00
    5.256384611130e-06 1.654951565433e-02 2.276152372360e-06 5.153688488007e+03
    3.312000000000e+05 1.415610313416e-07-1.671046158740e+00 2.011656761169e-07
    9.081590993289e-01 3.066875000000e+02 1.864425064490e+00-8.773936898261e-09
    2.932264997750e-10 1.000000000000e+00 2.041000000000e+03 0.000000000000e+00
    2.400000000000e+00 0.000000000000e+00-1.210719347000e-08 7.700000000000e+01
    3.240000000000e+05 4.000000000000e+00
 7 19  2 20 20  0  0.0 2.878531813622e-05-7.275957614183e-12 0.000000000000e+00
    7.200000000000e+01-3.343750000000e+00 5.313435611635e-09-2.849129446135e+00
   -2.831220626831e-07 1.223809318617e-02 3.498047590256e-06 5.153598899841e+03
    3.312000000000e+05 7.450580596924e-09 1.925526559099e+00-2.719461917877e-07
    9.557730071193e-01 3.118125000000e+02-2.476455179167e+00-8.436779997180e-09
    5.714523747137e-12 1.000000000000e+00 2.041000000000e+03 0.000000000000e+00
    2.400000000000e+00 0.000000000000e+00-1.117587089539e-08 7.200000000000e+01
    3.240000000000e+05 4.000000000000e+00
19 19  2 20 20  0  0.0-3.503207117319e-04 4.206412995700e-12 0.000000000000e+00
    4.700000000000e+01 1.374375000000e+02 3.951593171145e-09 2.700625881622e+00
    6.999820470810e-06 9.383168770000e-03 9.236857295036e-06 5.153627447128e+03
    3.312000000000e+05 1.285225152969e-07-2.180211725564e+00-2.793967723846e-08
    9.815979263051e-01 2.091562500000e+02 1.347530531335e+00-7.769609349702e-09
    3.428714248282e-10 1.000000000000e+00 2.041000000000e+03 0.000000000000e+00
    2.400000000000e+00 0.000000000000e+00-1.536682248116e-08 4.700000000000e+01
    3.240000000000e+05 4.000000000000e+00
32 19  2 20 20  0  0.0-2.170014195144e-04 1.898570189951e-11 0.000000000000e+00
    1.100000000000e+02 3.650000000000e+01 4.598048670040e-09 6.876358992982e-01
    1.855194568634e-06 2.594548044726e-03 1.164339482784e-05 5.153760185242e+03
    3.312000000000e+05 2.793967723846e-08 8.548627539736e-01 0.000000000000e+00
    9.569213539240e-01 1.540625000000e+02-2.613916632165e+00-8.055692694793e-09
    6.314548740587e-10 1.000000000000e+00 2.041000000000e+03 0.000000000000e+00
    2.400000000000e+00 0.000000000000e+00 4.656612873077e-10 1.100000000000e+02
    3.240000000000e+05 4.000000000000e+00
17 19  2 20 20  0  0.0 1.267809420824e-05 5.570655048359e-12 0.000000000000e+00
    6.200000000000e+01 1.185000000000e+02 4.016953036503e-09-1.015644657220e-01
    6.234273314476e-06 1.296861923765e-02 9.657815098763e-06 5.153697511673e+03
    3.312000000000e+05-2.086162567139e-07-2.226652747562e+00 1.676380634308e-07
    9.838821265941e-01 2.112812500000e+02-1.720485953603e+00-8.074264896971e-09
    3.450143712334e-10 1.000000000000e+00 2.041000000000e+03 0.000000000000e+00
    2.400000000000e+00 0.000000000000e+00-1.117587089539e-08 6.200000000000e+01
    3.240000000000e+05 4.000000000000e+00
